Mir     23.74  0.15 J986L   8.44786  103.26764   89.30749    8.77931  0.7727897  0.19254520   2.9701674    FO 250222     2   1 60.0 sec  0.08         Find_Orb   0000 Mir                         19980620
